start=new Date('2022-07-25T00:00:00.000Z').valueOf();
sats=[{"OBJECT_NAME":"STARLINK-3992","APOAPSIS":"495.609","COUNTRY_CODE":"US","NORAD_CAT_ID":"52627","ECCENTRICITY":"0.00015040","EPHEMERIS_TYPE":"0","RA_OF_ASC_NODE":"92.0731","ELEMENT_SET_NO":"999","CLASSIFICATION_TYPE":"U","OBJECT_ID":"2022-052AF","MEAN_MOTION_DOT":"-0.01061100","MEAN_ANOMALY":"170.4374","RCS_SIZE":"LARGE","REF_FRAME":"TEME","ARG_OF_PERICENTER":"62.4907","DECAY_DATE":null,"PERIAPSIS":"493.541","TLE_LINE2":"2 52627  53.2175  92.0731 0001504  62.4907 170.4374 15.23739548  1304","PERIOD":"94.504","INCLINATION":"53.2175","MEAN_MOTION":"15.23739548","EPOCH":"2022-07-24T22:00:00.999936","BSTAR":"-0.04757000000000","LAUNCH_DATE":"2022-05-14","GP_ID":"208802124","SEMIMAJOR_AXIS":"6872.710","TLE_LINE1":"1 52627U 22052AF  22205.91667824 -.01061100  00000-0 -47570-1 0  9992","MEAN_ELEMENT_THEORY":"SGP4","OBJECT_TYPE":"PAYLOAD","CENTER_NAME":"EARTH","SITE":"AFETR","REV_AT_EPOCH":"130","TIME_SYSTEM":"UTC","FILE":"3521124","MEAN_MOTION_DDOT":"0.0000000000000"},{"ECCENTRICITY":"0.00018190","NORAD_CAT_ID":"52628","OBJECT_NAME":"STARLINK-4001","COUNTRY_CODE":"US","APOAPSIS":"540.975","REF_FRAME":"TEME","RCS_SIZE":"LARGE","MEAN_ANOMALY":"80.0820","MEAN_MOTION_DOT":"-0.00037662","DECAY_DATE":null,"ARG_OF_PERICENTER":"65.8875","RA_OF_ASC_NODE":"106.7554","EPHEMERIS_TYPE":"0","OBJECT_ID":"2022-052AG","CLASSIFICATION_TYPE":"U","ELEMENT_SET_NO":"999","LAUNCH_DATE":"2022-05-14","BSTAR":"-0.00236000000000","EPOCH":"2022-07-24T22:00:00.999936","SEMIMAJOR_AXIS":"6917.852","TLE_LINE1":"1 52628U 22052AG  22205.91667824 -.00037662  00000-0 -23600-2 0  9997","GP_ID":"208801535","PERIAPSIS":"538.459","MEAN_MOTION":"15.08849304","INCLINATION":"53.2188","PERIOD":"95.437","TLE_LINE2":"2 52628  53.2188 106.7554 0001819  65.8875  80.0820 15.08849304  1302","TIME_SYSTEM":"UTC","MEAN_MOTION_DDOT":"0.0000000000000","FILE":"3521124","CENTER_NAME":"EARTH","OBJECT_TYPE":"PAYLOAD","MEAN_ELEMENT_THEORY":"SGP4","REV_AT_EPOCH":"130","SITE":"AFETR"},{"NORAD_CAT_ID":"52629","ECCENTRICITY":"0.00015530","COUNTRY_CODE":"US","APOAPSIS":"494.754","OBJECT_NAME":"STARLINK-4022","DECAY_DATE":null,"ARG_OF_PERICENTER":"56.4251","RCS_SIZE":"LARGE","REF_FRAME":"TEME","MEAN_MOTION_DOT":"-0.01061222","MEAN_ANOMALY":"189.4812","OBJECT_ID":"2022-052AH","ELEMENT_SET_NO":"999","CLASSIFICATION_TYPE":"U","RA_OF_ASC_NODE":"92.0774","EPHEMERIS_TYPE":"0","TLE_LINE1":"1 52629U 22052AH  22205.91667824 -.01061222  00000-0 -47156-1 0  9999","SEMIMAJOR_AXIS":"6871.822","GP_ID":"208802241","BSTAR":"-0.04715600000000","LAUNCH_DATE":"2022-05-14","EPOCH":"2022-07-24T22:00:00.999936","INCLINATION":"53.2175","MEAN_MOTION":"15.24034880","TLE_LINE2":"2 52629  53.2175  92.0774 0001553  56.4251 189.4812 15.24034880  1307","PERIOD":"94.486","PERIAPSIS":"492.620","MEAN_MOTION_DDOT":"0.0000000000000","FILE":"3521124","TIME_SYSTEM":"UTC","REV_AT_EPOCH":"130","SITE":"AFETR","CENTER_NAME":"EARTH","OBJECT_TYPE":"PAYLOAD","MEAN_ELEMENT_THEORY":"SGP4"},{"OBJECT_NAME":"STARLINK-3989","APOAPSIS":"497.493","COUNTRY_CODE":"US","ECCENTRICITY":"0.00016610","NORAD_CAT_ID":"52630","EPHEMERIS_TYPE":"0","RA_OF_ASC_NODE":"92.0644","CLASSIFICATION_TYPE":"U","ELEMENT_SET_NO":"999","OBJECT_ID":"2022-052AJ","MEAN_ANOMALY":"154.0710","MEAN_MOTION_DOT":"-0.01061119","REF_FRAME":"TEME","RCS_SIZE":"LARGE","ARG_OF_PERICENTER":"52.4878","DECAY_DATE":null,"PERIAPSIS":"495.209","PERIOD":"94.541","TLE_LINE2":"2 52630  53.2174  92.0644 0001661  52.4878 154.0710 15.23149057  1302","INCLINATION":"53.2174","MEAN_MOTION":"15.23149057","EPOCH":"2022-07-24T22:00:00.999936","LAUNCH_DATE":"2022-05-14","BSTAR":"-0.04841700000000","GP_ID":"208801650","TLE_LINE1":"1 52630U 22052AJ  22205.91667824 -.01061119  00000-0 -48417-1 0  9997","SEMIMAJOR_AXIS":"6874.486","MEAN_ELEMENT_THEORY":"SGP4","OBJECT_TYPE":"PAYLOAD","CENTER_NAME":"EARTH","SITE":"AFETR","REV_AT_EPOCH":"130","TIME_SYSTEM":"UTC","FILE":"3521124","MEAN_MOTION_DDOT":"0.0000000000000"},{"INCLINATION":"53.2175","MEAN_MOTION":"15.24317295","PERIOD":"94.469","TLE_LINE2":"2 52631  53.2175  92.0810 0001495  59.0815 199.9830 15.24317295  1301","PERIAPSIS":"491.811","TLE_LINE1":"1 52631U 22052AK  22205.91667824 -.01061426  00000-0 -46768-1 0  9996","SEMIMAJOR_AXIS":"6870.973","GP_ID":"208801758","LAUNCH_DATE":"2022-05-14","BSTAR":"-0.04676800000000","EPOCH":"2022-07-24T22:00:00.999936","REV_AT_EPOCH":"130","SITE":"AFETR","OBJECT_TYPE":"PAYLOAD","CENTER_NAME":"EARTH","MEAN_ELEMENT_THEORY":"SGP4","MEAN_MOTION_DDOT":"0.0000000000000","FILE":"3521124","TIME_SYSTEM":"UTC","COUNTRY_CODE":"US","APOAPSIS":"493.865","OBJECT_NAME":"STARLINK-3794","ECCENTRICITY":"0.00014950","NORAD_CAT_ID":"52631","OBJECT_ID":"2022-052AK","CLASSIFICATION_TYPE":"U","ELEMENT_SET_NO":"999","RA_OF_ASC_NODE":"92.0810","EPHEMERIS_TYPE":"0","DECAY_DATE":null,"ARG_OF_PERICENTER":"59.0815","REF_FRAME":"TEME","RCS_SIZE":"LARGE","MEAN_ANOMALY":"199.9830","MEAN_MOTION_DOT":"-0.01061426"},{"GP_ID":"208801900","TLE_LINE1":"1 52632U 22052AL  22205.91667824 -.01062258  00000-0 -46441-1 0  9999","SEMIMAJOR_AXIS":"6870.184","EPOCH":"2022-07-24T22:00:00.999936","LAUNCH_DATE":"2022-05-14","BSTAR":"-0.04644100000000","PERIOD":"94.452","TLE_LINE2":"2 52632  53.2175  91.9084 0001319  69.7536 228.6758 15.24580035  1309","INCLINATION":"53.2175","MEAN_MOTION":"15.24580035","PERIAPSIS":"491.143","FILE":"3521124","MEAN_MOTION_DDOT":"0.0000000000000","TIME_SYSTEM":"UTC","SITE":"AFETR","REV_AT_EPOCH":"130","MEAN_ELEMENT_THEORY":"SGP4","OBJECT_TYPE":"PAYLOAD","CENTER_NAME":"EARTH","ECCENTRICITY":"0.00013190","NORAD_CAT_ID":"52632","APOAPSIS":"492.955","COUNTRY_CODE":"US","OBJECT_NAME":"STARLINK-3995","ARG_OF_PERICENTER":"69.7536","DECAY_DATE":null,"MEAN_ANOMALY":"228.6758","MEAN_MOTION_DOT":"-0.01062258","REF_FRAME":"TEME","RCS_SIZE":"LARGE","CLASSIFICATION_TYPE":"U","ELEMENT_SET_NO":"999","OBJECT_ID":"2022-052AL","EPHEMERIS_TYPE":"0","RA_OF_ASC_NODE":"91.9084"},{"EPHEMERIS_TYPE":"0","RA_OF_ASC_NODE":"92.0929","CLASSIFICATION_TYPE":"U","ELEMENT_SET_NO":"999","OBJECT_ID":"2022-052AM","MEAN_ANOMALY":"219.9607","MEAN_MOTION_DOT":"-0.01062390","REF_FRAME":"TEME","RCS_SIZE":"LARGE","ARG_OF_PERICENTER":"76.8171","DECAY_DATE":null,"OBJECT_NAME":"STARLINK-3994","APOAPSIS":"491.059","COUNTRY_CODE":"US","ECCENTRICITY":"0.00012860","NORAD_CAT_ID":"52633","MEAN_ELEMENT_THEORY":"SGP4","CENTER_NAME":"EARTH","OBJECT_TYPE":"PAYLOAD","SITE":"AFETR","REV_AT_EPOCH":"130","TIME_SYSTEM":"UTC","FILE":"3521124","MEAN_MOTION_DDOT":"0.0000000000000","PERIAPSIS":"489.293","PERIOD":"94.414","TLE_LINE2":"2 52633  53.2175  92.0929 0001286  76.8171 219.9607 15.25203628  1304","INCLINATION":"53.2175","MEAN_MOTION":"15.25203628","EPOCH":"2022-07-24T22:00:00.999936","LAUNCH_DATE":"2022-05-14","BSTAR":"-0.04558200000000","GP_ID":"208802336","TLE_LINE1":"1 52633U 22052AM  22205.91667824 -.01062390  00000-0 -45582-1 0  9992","SEMIMAJOR_AXIS":"6868.311"},{"DECAY_DATE":null,"ARG_OF_PERICENTER":"64.3421","RCS_SIZE":"LARGE","REF_FRAME":"TEME","MEAN_MOTION_DOT":"-0.01061343","MEAN_ANOMALY":"191.1616","OBJECT_ID":"2022-052AN","ELEMENT_SET_NO":"999","CLASSIFICATION_TYPE":"U","RA_OF_ASC_NODE":"92.0804","EPHEMERIS_TYPE":"0","NORAD_CAT_ID":"52634","ECCENTRICITY":"0.00014490","COUNTRY_CODE":"US","APOAPSIS":"494.036","OBJECT_NAME":"STARLINK-3974","MEAN_MOTION_DDOT":"0.0000000000000","FILE":"3521124","TIME_SYSTEM":"UTC","REV_AT_EPOCH":"130","SITE":"AFETR","CENTER_NAME":"EARTH","OBJECT_TYPE":"PAYLOAD","MEAN_ELEMENT_THEORY":"SGP4","SEMIMAJOR_AXIS":"6871.175","TLE_LINE1":"1 52634U 22052AN  22205.91667824 -.01061343  00000-0 -46859-1 0  9998","GP_ID":"208802016","BSTAR":"-0.04685900000000","LAUNCH_DATE":"2022-05-14","EPOCH":"2022-07-24T22:00:00.999936","INCLINATION":"53.2175","MEAN_MOTION":"15.24250073","TLE_LINE2":"2 52634  53.2175  92.0804 0001449  64.3421 191.1616 15.24250073  1304","PERIOD":"94.473","PERIAPSIS":"492.045"},{"GP_ID":"208802125","TLE_LINE1":"1 52635U 22052AP  22205.91667824 -.01065838  00000-0 -95600-2 0  9991","SEMIMAJOR_AXIS":"6736.205","EPOCH":"2022-07-24T22:00:00.999936","LAUNCH_DATE":"2022-05-14","BSTAR":"-0.00956000000000","PERIOD":"91.703","TLE_LINE2":"2 52635  53.2171  87.8194 0002757 337.6419 155.8914 15.70289698  1305","INCLINATION":"53.2171","MEAN_MOTION":"15.70289698","PERIAPSIS":"356.213","FILE":"3521124","MEAN_MOTION_DDOT":"0.0000000000000","TIME_SYSTEM":"UTC","SITE":"AFETR","REV_AT_EPOCH":"130","MEAN_ELEMENT_THEORY":"SGP4","CENTER_NAME":"EARTH","OBJECT_TYPE":"PAYLOAD","ECCENTRICITY":"0.00027570","NORAD_CAT_ID":"52635","APOAPSIS":"359.928","COUNTRY_CODE":"US","OBJECT_NAME":"STARLINK-3978","ARG_OF_PERICENTER":"337.6419","DECAY_DATE":null,"MEAN_ANOMALY":"155.8914","MEAN_MOTION_DOT":"-0.01065838","REF_FRAME":"TEME","RCS_SIZE":"LARGE","CLASSIFICATION_TYPE":"U","ELEMENT_SET_NO":"999","OBJECT_ID":"2022-052AP","EPHEMERIS_TYPE":"0","RA_OF_ASC_NODE":"87.8194"},{"SITE":"AFETR","REV_AT_EPOCH":"130","MEAN_ELEMENT_THEORY":"SGP4","CENTER_NAME":"EARTH","OBJECT_TYPE":"PAYLOAD","FILE":"3521124","MEAN_MOTION_DDOT":"0.0000000000000","TIME_SYSTEM":"UTC","TLE_LINE2":"2 52636  53.2175  92.0851 0001346  75.3144 196.4589 15.24612694  1306","PERIOD":"94.450","INCLINATION":"53.2175","MEAN_MOTION":"15.24612694","PERIAPSIS":"491.026","GP_ID":"208801536","TLE_LINE1":"1 52636U 22052AQ  22205.91667824 -.01061689  00000-0 -46368-1 0  9998","SEMIMAJOR_AXIS":"6870.086","EPOCH":"2022-07-24T22:00:00.999936","BSTAR":"-0.04636800000000","LAUNCH_DATE":"2022-05-14","ELEMENT_SET_NO":"999","CLASSIFICATION_TYPE":"U","OBJECT_ID":"2022-052AQ","EPHEMERIS_TYPE":"0","RA_OF_ASC_NODE":"92.0851","ARG_OF_PERICENTER":"75.3144","DECAY_DATE":null,"MEAN_MOTION_DOT":"-0.01061689","MEAN_ANOMALY":"196.4589","RCS_SIZE":"LARGE","REF_FRAME":"TEME","APOAPSIS":"492.875","COUNTRY_CODE":"US","OBJECT_NAME":"STARLINK-3967","NORAD_CAT_ID":"52636","ECCENTRICITY":"0.00013460"}];
